[{"OBJECT_NAME":"ZHUHAI-1 OVS-02","OBJECT_ID":"2018-040B","EPOCH":"2026-03-09T23:28:43.397184","MEAN_MOTION":15.23701521,"ECCENTRICITY":0.00020716,"INCLINATION":97.0496,"RA_OF_ASC_NODE":92.136,"ARG_OF_PERICENTER":226.172,"MEAN_ANOMALY":133.9347,"EPHEMERIS_TYPE":0,"CLASSIFICATION_TYPE":"U","NORAD_CAT_ID":43440,"ELEMENT_SET_NO":999,"REV_AT_EPOCH":43760,"BSTAR":0.0003025193,"MEAN_MOTION_DOT":7.199e-5,"MEAN_MOTION_DDOT":0},{"OBJECT_NAME":"DANDE","OBJECT_ID":"2013-055C","EPOCH":"2026-03-09T22:31:17.292576","MEAN_MOTION":14.76534852,"ECCENTRICITY":0.04736914,"INCLINATION":80.988,"RA_OF_ASC_NODE":283.8166,"ARG_OF_PERICENTER":234.3414,"MEAN_ANOMALY":121.2825,"EPHEMERIS_TYPE":0,"CLASSIFICATION_TYPE":"U","NORAD_CAT_ID":39267,"ELEMENT_SET_NO":999,"REV_AT_EPOCH":64554,"BSTAR":0.00031071998,"MEAN_MOTION_DOT":0.00015936,"MEAN_MOTION_DDOT":0}]
